[Satellite]
VERSION=1.1
NAME=ISARA
NICKNAME=ISARA
TLE1=1 43050U 17071P   19317.47721202  .00005321  00000-0  12079-3 0  9997
TLE2=2 43050  51.6384  43.0497 0002248   1.3355 358.7637 15.44746060108938
STATUS=0
